{"type": "FeatureCollection", "features": [ {"type": "Feature", "properties": {"norad_id": 30369, "name": "FENGYUN 1C DEB", "group": "fengyun-1c-debris", "lat": -70.85214899152656, "lon": 135.05598046376906, "alt_km": 812.3252154280963, "timestamp": "2025-12-09T20:37:09.563019+00:00", "meta": {"OBJECT_NAME": "FENGYUN 1C DEB", "OBJECT_ID": "1999-025ACG", "EPOCH": "2025-12-09T11:39:20.450304", "MEAN_MOTION": 14.12054027, "ECCENTRICITY": 0.0099061, "INCLINATION": 98.7212, "RA_OF_ASC_NODE": 340.9293, "ARG_OF_PERICENTER": 204.7877, "MEAN_ANOMALY": 309.6989, "EPHEMERIS_TYPE": 0, "CLASSIFICATION_TYPE": "U", "NORAD_CAT_ID": 30369, "ELEMENT_SET_NO": 999, "REV_AT_EPOCH": 97200, "BSTAR": 0.00032192789, "MEAN_MOTION_DOT": 5.75e-06, "MEAN_MOTION_DDOT": 0}, "tle": {"line1": "1 30369U 99025ACG 25343.48565336  .00000575  00000+0  32193-3 0  9990", "line2": "2 30369  98.7212 340.9293 0099061 204.7877 309.6989 14.12054027972000"}}, "geometry": {"type": "Point", "coordinates": [135.05598046376906, -70.85214899152656]}}, {"type": "Feature", "properties": {"norad_id": 30370, "name": "FENGYUN 1C DEB", "group": "fengyun-1c-debris", "lat": 73.32113398828004, "lon": -108.0930353739536, "alt_km": 874.3988403633366, "timestamp": "2025-12-09T20:37:09.563029+00:00", "meta": {"OBJECT_NAME": "FENGYUN 1C DEB", "OBJECT_ID": "1999-025ACH", "EPOCH": "2025-12-09T15:46:13.749312", "MEAN_MOTION": 14.19127306, "ECCENTRICITY": 0.00992298, "INCLINATION": 99.0561, "RA_OF_ASC_NODE": 39.5382, "ARG_OF_PERICENTER": 326.2174, "MEAN_ANOMALY": 185.4664, "EPHEMERIS_TYPE": 0, "CLASSIFICATION_TYPE": "U", "NORAD_CAT_ID": 30370, "ELEMENT_SET_NO": 999, "REV_AT_EPOCH": 97050, "BSTAR": 0.0017947645, "MEAN_MOTION_DOT": 3.898e-05, "MEAN_MOTION_DDOT": 0}, "tle": {"line1": "1 30370U 99025ACH 25343.65710358  .00003898  00000+0  17948-2 0  9998", "line2": "2 30370  99.0561  39.5382 0099229 326.2174 185.4664 14.19127306970500"}}, "geometry": {"type": "Point", "coordinates": [-108.0930353739536, 73.32113398828004]}}, {"type": "Feature", "properties": {"norad_id": 30371, "name": "FENGYUN 1C DEB", "group": "fengyun-1c-debris", "lat": 5.808544775803903, "lon": 26.023369226332832, "alt_km": 788.4435467279709, "timestamp": "2025-12-09T20:37:09.563040+00:00", "meta": {"OBJECT_NAME": "FENGYUN 1C DEB", "OBJECT_ID": "1999-025ACJ", "EPOCH": "2025-12-09T02:22:29.333568", "MEAN_MOTION": 14.30201712, "ECCENTRICITY": 0.00070255, "INCLINATION": 98.5759, "RA_OF_ASC_NODE": 26.1539, "ARG_OF_PERICENTER": 348.4204, "MEAN_ANOMALY": 65.7725, "EPHEMERIS_TYPE": 0, "CLASSIFICATION_TYPE": "U", "NORAD_CAT_ID": 30371, "ELEMENT_SET_NO": 999, "REV_AT_EPOCH": 97851, "BSTAR": 0.0013076775, "MEAN_MOTION_DOT": 3.345e-05, "MEAN_MOTION_DDOT": 0}, "tle": {"line1": "1 30371U 99025ACJ 25343.09895062  .00003345  00000+0  13077-2 0  9999", "line2": "2 30371  98.5759  26.1539 0007025 348.4204  65.7725 14.30201712978517"}}, "geometry": {"type": "Point", "coordinates": [26.023369226332832, 5.808544775803903]}}, {"type": "Feature", "properties": {"norad_id": 30374, "name": "FENGYUN 1C DEB", "group": "fengyun-1c-debris", "lat": 49.104288695307524, "lon": 37.92208455780035, "alt_km": 665.8868648003636, "timestamp": "2025-12-09T20:37:09.563050+00:00", "meta": {"OBJECT_NAME": "FENGYUN 1C DEB", "OBJECT_ID": "1999-025ACM", "EPOCH": "2025-12-09T09:18:41.285376", "MEAN_MOTION": 14.61191892, "ECCENTRICITY": 0.00392069, "INCLINATION": 99.2724, "RA_OF_ASC_NODE": 206.522, "ARG_OF_PERICENTER": 178.4546, "MEAN_ANOMALY": 354.7886, "EPHEMERIS_TYPE": 0, "CLASSIFICATION_TYPE": "U", "NORAD_CAT_ID": 30374, "ELEMENT_SET_NO": 999, "REV_AT_EPOCH": 98873, "BSTAR": 0.0022928831, "MEAN_MOTION_DOT": 0.00011376, "MEAN_MOTION_DDOT": 0}, "tle": {"line1": "1 30374U 99025ACM 25343.38797784  .00011376  00000+0  22929-2 0  9995", "line2": "2 30374  99.2724 206.5220 0039206 178.4546 354.7886 14.61191892988732"}}, "geometry": {"type": "Point", "coordinates": [37.92208455780035, 49.104288695307524]}}, {"type": "Feature", "properties": {"norad_id": 30377, "name": "FENGYUN 1C DEB", "group": "fengyun-1c-debris", "lat": -29.807224230324593, "lon": 178.2887341052593, "alt_km": 864.8441163054731, "timestamp": "2025-12-09T20:37:09.563061+00:00", "meta": {"OBJECT_NAME": "FENGYUN 1C DEB", "OBJECT_ID": "1999-025ACQ", "EPOCH": "2025-12-09T00:59:41.972928", "MEAN_MOTION": 13.9916537, "ECCENTRICITY": 0.01181974, "INCLINATION": 98.8938, "RA_OF_ASC_NODE": 2.6413, "ARG_OF_PERICENTER": 276.9809, "MEAN_ANOMALY": 137.9495, "EPHEMERIS_TYPE": 0, "CLASSIFICATION_TYPE": "U", "NORAD_CAT_ID": 30377, "ELEMENT_SET_NO": 999, "REV_AT_EPOCH": 96155, "BSTAR": 0.00044564416, "MEAN_MOTION_DOT": 6.42e-06, "MEAN_MOTION_DDOT": 0}, "tle": {"line1": "1 30377U 99025ACQ 25343.04145802  .00000642  00000+0  44564-3 0  9993", "line2": "2 30377  98.8938   2.6413 0118197 276.9809 137.9495 13.99165370961559"}}, "geometry": {"type": "Point", "coordinates": [178.2887341052593, -29.807224230324593]}}, {"type": "Feature", "properties": {"norad_id": 30379, "name": "FENGYUN 1C DEB", "group": "fengyun-1c-debris", "lat": -56.21775033612393, "lon": 165.36349673021058, "alt_km": 856.6847235056457, "timestamp": "2025-12-09T20:37:09.563071+00:00", "meta": {"OBJECT_NAME": "FENGYUN 1C DEB", "OBJECT_ID": "1999-025ACS", "EPOCH": "2025-12-09T13:23:46.014144", "MEAN_MOTION": 14.08030224, "ECCENTRICITY": 0.00355087, "INCLINATION": 98.7584, "RA_OF_ASC_NODE": 358.3944, "ARG_OF_PERICENTER": 288.421, "MEAN_ANOMALY": 224.3407, "EPHEMERIS_TYPE": 0, "CLASSIFICATION_TYPE": "U", "NORAD_CAT_ID": 30379, "ELEMENT_SET_NO": 999, "REV_AT_EPOCH": 96772, "BSTAR": 0.00048276812, "MEAN_MOTION_DOT": 7.83e-06, "MEAN_MOTION_DDOT": 0}, "tle": {"line1": "1 30379U 99025ACS 25343.55817146  .00000783  00000+0  48277-3 0  9999", "line2": "2 30379  98.7584 358.3944 0035508 288.4210 224.3407 14.08030224967724"}}, "geometry": {"type": "Point", "coordinates": [165.36349673021058, -56.21775033612393]}}, {"type": "Feature", "properties": {"norad_id": 30380, "name": "FENGYUN 1C DEB", "group": "fengyun-1c-debris", "lat": -12.368688850418232, "lon": -150.66121196234573, "alt_km": 622.389628860401, "timestamp": "2025-12-09T20:37:09.563082+00:00", "meta": {"OBJECT_NAME": "FENGYUN 1C DEB", "OBJECT_ID": "1999-025ACT", "EPOCH": "2025-12-09T14:45:25.274304", "MEAN_MOTION": 14.50656116, "ECCENTRICITY": 0.0177411, "INCLINATION": 98.9146, "RA_OF_ASC_NODE": 31.0526, "ARG_OF_PERICENTER": 226.8308, "MEAN_ANOMALY": 131.7943, "EPHEMERIS_TYPE": 0, "CLASSIFICATION_TYPE": "U", "NORAD_CAT_ID": 30380, "ELEMENT_SET_NO": 999, "REV_AT_EPOCH": 99520, "BSTAR": 0.00051773665, "MEAN_MOTION_DOT": 2.43e-05, "MEAN_MOTION_DDOT": 0}, "tle": {"line1": "1 30380U 99025ACT 25343.61487586  .00002430  00000+0  51774-3 0  9996", "line2": "2 30380  98.9146  31.0526 0177411 226.8308 131.7943 14.50656116995208"}}, "geometry": {"type": "Point", "coordinates": [-150.66121196234573, -12.368688850418232]}}, {"type": "Feature", "properties": {"norad_id": 30381, "name": "FENGYUN 1C DEB", "group": "fengyun-1c-debris", "lat": -10.907096308975257, "lon": -162.8167278816838, "alt_km": 864.7411445099597, "timestamp": "2025-12-09T20:37:09.563092+00:00", "meta": {"OBJECT_NAME": "FENGYUN 1C DEB", "OBJECT_ID": "1999-025ACU", "EPOCH": "2025-12-07T20:08:12.684480", "MEAN_MOTION": 14.12918524, "ECCENTRICITY": 0.00547943, "INCLINATION": 98.8131, "RA_OF_ASC_NODE": 16.9083, "ARG_OF_PERICENTER": 89.9696, "MEAN_ANOMALY": 270.7755, "EPHEMERIS_TYPE": 0, "CLASSIFICATION_TYPE": "U", "NORAD_CAT_ID": 30381, "ELEMENT_SET_NO": 999, "REV_AT_EPOCH": 92097, "BSTAR": 0.0015382529, "MEAN_MOTION_DOT": 2.863e-05, "MEAN_MOTION_DDOT": 0}, "tle": {"line1": "1 30381U 99025ACU 25341.83903570  .00002863  00000+0  15383-2 0  9990", "line2": "2 30381  98.8131  16.9083 0054794  89.9696 270.7755 14.12918524920977"}}, "geometry": {"type": "Point", "coordinates": [-162.8167278816838, -10.907096308975257]}}, {"type": "Feature", "properties": {"norad_id": 30382, "name": "FENGYUN 1C DEB", "group": "fengyun-1c-debris", "lat": 48.0257222978609, "lon": 12.753300073494465, "alt_km": 721.4288502466534, "timestamp": "2025-12-09T20:37:09.563103+00:00", "meta": {"OBJECT_NAME": "FENGYUN 1C DEB", "OBJECT_ID": "1999-025ACV", "EPOCH": "2025-12-09T14:21:45.900288", "MEAN_MOTION": 14.25267827, "ECCENTRICITY": 0.01549264, "INCLINATION": 98.4992, "RA_OF_ASC_NODE": 22.0689, "ARG_OF_PERICENTER": 6.2704, "MEAN_ANOMALY": 144.5013, "EPHEMERIS_TYPE": 0, "CLASSIFICATION_TYPE": "U", "NORAD_CAT_ID": 30382, "ELEMENT_SET_NO": 999, "REV_AT_EPOCH": 97490, "BSTAR": 0.0012350842, "MEAN_MOTION_DOT": 3.251e-05, "MEAN_MOTION_DDOT": 0}, "tle": {"line1": "1 30382U 99025ACV 25343.59844792  .00003251  00000+0  12351-2 0  9990", "line2": "2 30382  98.4992  22.0689 0154926   6.2704 144.5013 14.25267827974903"}}, "geometry": {"type": "Point", "coordinates": [12.753300073494465, 48.0257222978609]}}, {"type": "Feature", "properties": {"norad_id": 30385, "name": "FENGYUN 1C DEB", "group": "fengyun-1c-debris", "lat": -40.4491814386359, "lon": 176.55689250111442, "alt_km": 748.1185354773206, "timestamp": "2025-12-09T20:37:09.563113+00:00", "meta": {"OBJECT_NAME": "FENGYUN 1C DEB", "OBJECT_ID": "1999-025ACY", "EPOCH": "2025-12-09T13:38:12.600960", "MEAN_MOTION": 14.38777606, "ECCENTRICITY": 0.0124754, "INCLINATION": 99.0821, "RA_OF_ASC_NODE": 4.087, "ARG_OF_PERICENTER": 298.9575, "MEAN_ANOMALY": 217.3275, "EPHEMERIS_TYPE": 0, "CLASSIFICATION_TYPE": "U", "NORAD_CAT_ID": 30385, "ELEMENT_SET_NO": 999, "REV_AT_EPOCH": 98723, "BSTAR": 0.00052299987, "MEAN_MOTION_DOT": 1.705e-05, "MEAN_MOTION_DDOT": 0}, "tle": {"line1": "1 30385U 99025ACY 25343.56820140  .00001705  00000+0  52300-3 0  9992", "line2": "2 30385  99.0821   4.0870 0124754 298.9575 217.3275 14.38777606987232"}}, "geometry": {"type": "Point", "coordinates": [176.55689250111442, -40.4491814386359]}}]}